     2.10           NAVIGATION                              RINEX VERSION / TYPE
fic2rin                                 08/04/2008 05:13:43 PGM / RUN BY / DATE
                                                            END OF HEADER
14 08  8  3 12  0  0.0 -.236591789871D-03  .454747350886D-11  .000000000000D+00
     .270000000000D+02  .815000000000D+02  .374372736984D-08  .267078686737D+01
     .423751771450D-05  .396450504195D-02  .112578272820D-04  .515372302246D+04
     .432000000000D+05 -.204890966415D-07  .711321019913D+00 -.856816768646D-07
     .989303880935D+00  .176937500000D+03 -.218904658189D+01 -.754924302770D-08
     .176793078427D-09  .100000000000D+01  .149100000000D+04  .000000000000D+00
     .240000000000D+01  .000000000000D+00 -.884756445885D-08  .270000000000D+02
     .360060000000D+05  .400000000000D+01
15 08  8  3 12  0  0.0 -.153644941747D-03 -.648014975013D-11  .000000000000D+00
     .110000000000D+03  .825000000000D+02  .452411701906D-08 -.271056168913D+01
     .438466668129D-05  .731913372874D-03  .117253512144D-04  .515369030380D+04
     .432000000000D+05 -.167638063431D-07  .668164674712D+00  .782310962677D-07
     .957657429933D+00  .150375000000D+03 -.123904238156D+01 -.800783355841D-08
     .226438003480D-09  .100000000000D+01  .149100000000D+04  .000000000000D+00
     .340000000000D+01  .000000000000D+00 -.977888703346D-08  .110000000000D+03
     .360060000000D+05  .400000000000D+01
18 08  8  3 12  0  0.0 -.149147585034D-03  .420641299570D-11  .000000000000D+00
     .780000000000D+02 -.521250000000D+02  .495663503517D-08 -.163994390302D+01
    -.276416540146D-05  .970927148592D-02  .854209065437D-05  .515370307541D+04
     .432000000000D+05  .139698386192D-06 -.331365505378D+00 -.109896063805D-06
     .946956662557D+00  .203531250000D+03 -.248789071470D+01 -.816855453880D-08
    -.362157942475D-09  .100000000000D+01  .149100000000D+04  .000000000000D+00
     .240000000000D+01  .000000000000D+00 -.107102096081D-07  .780000000000D+02
     .360060000000D+05  .400000000000D+01
19 08  8  3 12  0  0.0  .343015417457D-04  .454747350886D-12  .000000000000D+00
     .920000000000D+02  .299062500000D+02  .430303638159D-08  .281792736089D+01
     .152923166752D-05  .487098540179D-02  .115521252155D-04  .515372059822D+04
     .432000000000D+05 -.558793544769D-08 -.239130223609D+01  .186264514923D-07
     .957477749946D+00  .154218750000D+03 -.546997226687D+00 -.784246952748D-08
     .416803075807D-09  .100000000000D+01  .149100000000D+04  .000000000000D+00
     .240000000000D+01  .000000000000D+00 -.144354999065D-07  .920000000000D+02
     .360060000000D+05  .400000000000D+01
20 08  8  3 12  0  0.0  .108490698040D-03 -.909494701773D-12  .000000000000D+00
     .200000000000D+02 -.463437500000D+02  .501413743038D-08 -.159556630211D+01
    -.225566327572D-05  .356801843736D-02  .891834497452D-05  .515379667282D+04
     .432000000000D+05  .260770320892D-07 -.384985862218D+00  .987201929092D-07
     .946446741980D+00  .201156250000D+03  .138257192951D+01 -.822427114533D-08
    -.440375486264D-09  .100000000000D+01  .149100000000D+04  .000000000000D+00
     .240000000000D+01  .000000000000D+00 -.651925802231D-08  .200000000000D+02
     .360060000000D+05  .400000000000D+01
21 08  8  3 12  0  0.0  .557876192033D-04 -.136424205266D-11  .000000000000D+00
     .310000000000D+02  .305000000000D+02  .560273337633D-08 -.458938645962D+00
     .182911753654D-05  .142115623457D-01  .404007732868D-05  .515368966484D+04
     .432000000000D+05  .180676579475D-06 -.138979111132D+01  .160187482834D-06
     .935330861359D+00  .285437500000D+03 -.269085914502D+01 -.887786979891D-08
     .320727645308D-09  .100000000000D+01  .149100000000D+04  .000000000000D+00
     .240000000000D+01  .000000000000D+00 -.116415321827D-07  .310000000000D+02
     .360060000000D+05  .400000000000D+01
22 08  8  3 12  0  0.0  .211457256228D-03 -.227373675443D-12  .000000000000D+00
     .640000000000D+02 -.545000000000D+02  .499235080859D-08 -.289242036956D+01
    -.299327075481D-05  .501153222285D-02  .895746052265D-05  .515366415596D+04
     .432000000000D+05  .949949026108D-07 -.325023862297D+00 -.447034835815D-07
     .944602151500D+00  .197687500000D+03 -.183389617318D+01 -.818712674098D-08
    -.433946647048D-09  .100000000000D+01  .149100000000D+04  .000000000000D+00
     .240000000000D+01  .000000000000D+00 -.181607902050D-07  .640000000000D+02
     .360060000000D+05  .400000000000D+01
24 08  8  3 12  0  0.0  .114287249744D-03  .284217094304D-11  .000000000000D+00
     .880000000000D+02  .250937500000D+02  .516914388702D-08 -.179822120713D+01
     .139884650707D-05  .761789281387D-02  .469572842121D-05  .515365808868D+04
     .432000000000D+05 -.195577740669D-06 -.136266928892D+01  .111758708954D-07
     .951987057054D+00  .288031250000D+03 -.726778876503D+00 -.848071039849D-08
     .330728061866D-09  .100000000000D+01  .149100000000D+04  .000000000000D+00
     .240000000000D+01  .000000000000D+00 -.139698386192D-08  .880000000000D+02
     .360060000000D+05  .400000000000D+01
25 08  8  3 12  0  0.0 -.210212543607D-03 -.110276232590D-10  .000000000000D+00
     .970000000000D+02  .464375000000D+02  .493663420206D-08 -.130069021901D+01
     .247359275818D-05  .116186945233D-01  .231526792049D-05  .515369340134D+04
     .432000000000D+05 -.232830643654D-06  .163265892794D+01  .391155481339D-07
     .965428403957D+00  .338062500000D+03 -.124779017670D+01 -.867214694402D-08
     .106075847056D-09  .100000000000D+01  .149100000000D+04  .000000000000D+00
     .240000000000D+01  .000000000000D+00 -.745058059692D-08  .970000000000D+02
     .360060000000D+05  .400000000000D+01
26 08  8  3 12  0  0.0  .303649809211D-03  .636646291241D-11  .000000000000D+00
     .930000000000D+02  .855937500000D+02  .376658546483D-08  .156475271377D+01
     .443123281002D-05  .191291370429D-01  .121351331472D-04  .515362820816D+04
     .432000000000D+05 -.480562448502D-06  .727485053393D+00  .149011611938D-07
     .993517535582D+00  .165750000000D+03  .950110873394D+00 -.778889586735D-08
     .216437586923D-09  .100000000000D+01  .149100000000D+04  .000000000000D+00
     .240000000000D+01  .000000000000D+00 -.605359673500D-08  .930000000000D+02
     .360060000000D+05  .400000000000D+01
27 08  8  3 12  0  0.0  .207422766834D-03  .272848410532D-11  .000000000000D+00
     .870000000000D+02  .454062500000D+02  .476805575152D-08 -.131045303354D+01
     .267475843430D-05  .211233480368D-01  .216811895370D-05  .515374270439D+04
     .432000000000D+05 -.298023223877D-07  .166769457831D+01  .499188899994D-06
     .970030552592D+00  .343656250000D+03 -.169485633252D+01 -.857107130524D-08
     .535736601294D-10  .100000000000D+01  .149100000000D+04  .000000000000D+00
     .485000000000D+01  .000000000000D+00 -.419095158577D-08  .870000000000D+02
     .360060000000D+05  .400000000000D+01
28 08  8  3 12  0  0.0 -.215950421989D-04 -.341060513165D-12  .000000000000D+00
     .970000000000D+02 -.122562500000D+03  .418660296025D-08 -.256641611808D+01
    -.625662505627D-05  .138683390105D-01  .858865678310D-05  .515372309113D+04
     .432000000000D+05  .145286321640D-06  .280282234258D+01 -.540167093277D-07
     .964626433729D+00  .212593750000D+03 -.209289158492D+01 -.782746890264D-08
    -.411445709794D-09  .100000000000D+01  .149100000000D+04  .000000000000D+00
     .340000000000D+01  .000000000000D+00 -.102445483208D-07  .970000000000D+02
     .360060000000D+05  .400000000000D+01
29 08  8  3 12  0  0.0 -.406089238822D-04  .682121026330D-12  .000000000000D+00
     .350000000000D+02  .443750000000D+01  .419696053454D-08 -.346472004155D+00
     .346451997757D-06  .365685205907D-02  .119823962450D-04  .515362858963D+04
     .432000000000D+05 -.134110450745D-06 -.244002928849D+01  .484287738800D-07
     .959876897560D+00  .149812500000D+03 -.138524674356D+01 -.782675458717D-08
     .447518640948D-09  .100000000000D+01  .149100000000D+04  .000000000000D+00
     .240000000000D+01  .000000000000D+00 -.884756445885D-08  .350000000000D+02
     .360060000000D+05  .400000000000D+01
30 08  8  3 12  0  0.0  .892025418580D-04  .193267624127D-11  .000000000000D+00
     .270000000000D+02 -.119218750000D+03  .466948021688D-08 -.209677496533D+01
    -.608712434769D-05  .109238097211D-01  .649131834507D-05  .515370780754D+04
     .432000000000D+05  .266358256340D-06  .273487842609D+01 -.353902578354D-07
     .949636633389D+00  .248375000000D+03  .138392057174D+01 -.811962392921D-08
    -.497520723735D-09  .100000000000D+01  .149100000000D+04  .000000000000D+00
     .240000000000D+01  .000000000000D+00 -.838190317154D-08  .270000000000D+02
     .360060000000D+05  .400000000000D+01
32 08  8  3 12  0  0.0  .311341602355D-03  .216004991671D-11  .000000000000D+00
     .900000000000D+02 -.422187500000D+02  .443304179684D-08  .138755117746D+01
    -.233016908169D-05  .139029712882D-01  .961124897003D-05  .515380835915D+04
     .432000000000D+05  .113621354103D-06 -.281766289017D+00 -.320374965668D-06
     .968446032373D+00  .201968750000D+03 -.130264183219D+01 -.794247369305D-08
    -.416088760338D-09  .100000000000D+01  .149100000000D+04  .000000000000D+00
     .240000000000D+01  .000000000000D+00 -.279396772385D-08  .900000000000D+02
     .360060000000D+05  .400000000000D+01
15 08  8  3 11 59 44.0 -.153645873070D-03 -.648014975013D-11  .000000000000D+00
     .400000000000D+01  .825000000000D+02  .452411701906D-08 -.271289129694D+01
     .438466668129D-05  .731913722120D-03  .117253512144D-04  .515369029045D+04
     .431840000000D+05 -.167638063431D-07  .668164800523D+00  .782310962677D-07
     .957657438711D+00  .150375000000D+03 -.123904640458D+01 -.800783355841D-08
     .226438003480D-09  .100000000000D+01  .149100000000D+04  .000000000000D+00
     .240000000000D+01  .000000000000D+00 -.977888703346D-08  .400000000000D+01
     .372060000000D+05  .400000000000D+01
